{"type": "FeatureCollection", "features": [ {"type": "Feature", "properties": {"norad_id": 34432, "name": "COSMOS 2251 DEB", "group": "cosmos-2251-debris", "lat": 62.87812521594922, "lon": -94.70439082109824, "alt_km": 879.5559854280637, "timestamp": "2025-12-02T19:35:50.948826+00:00", "meta": {"OBJECT_NAME": "COSMOS 2251 DEB", "OBJECT_ID": "1993-036RZ", "EPOCH": "2025-12-02T12:31:54.282720", "MEAN_MOTION": 14.02833387, "ECCENTRICITY": 0.0183226, "INCLINATION": 73.8271, "RA_OF_ASC_NODE": 120.3247, "ARG_OF_PERICENTER": 204.5326, "MEAN_ANOMALY": 223.3548, "EPHEMERIS_TYPE": 0, "CLASSIFICATION_TYPE": "U", "NORAD_CAT_ID": 34432, "ELEMENT_SET_NO": 999, "REV_AT_EPOCH": 85541, "BSTAR": 0.0013811, "MEAN_MOTION_DOT": 2.453e-05, "MEAN_MOTION_DDOT": 0}, "tle": {"line1": "1 34432U 93036RZ  25336.52215605  .00002453  00000+0  13811-2 0  9991", "line2": "2 34432  73.8271 120.3247 0183226 204.5326 223.3548 14.02833387855418"}}, "geometry": {"type": "Point", "coordinates": [-94.70439082109824, 62.87812521594922]}}, {"type": "Feature", "properties": {"norad_id": 34433, "name": "COSMOS 2251 DEB", "group": "cosmos-2251-debris", "lat": 35.017774018091764, "lon": -19.076713984902508, "alt_km": 954.9400975655817, "timestamp": "2025-12-02T19:35:50.948837+00:00", "meta": {"OBJECT_NAME": "COSMOS 2251 DEB", "OBJECT_ID": "1993-036SA", "EPOCH": "2025-12-02T00:13:13.494144", "MEAN_MOTION": 14.12772315, "ECCENTRICITY": 0.01516924, "INCLINATION": 74.0107, "RA_OF_ASC_NODE": 173.942, "ARG_OF_PERICENTER": 314.3942, "MEAN_ANOMALY": 44.4856, "EPHEMERIS_TYPE": 0, "CLASSIFICATION_TYPE": "U", "NORAD_CAT_ID": 34433, "ELEMENT_SET_NO": 999, "REV_AT_EPOCH": 85798, "BSTAR": 0.0015741437, "MEAN_MOTION_DOT": 3.235e-05, "MEAN_MOTION_DDOT": 0}, "tle": {"line1": "1 34433U 93036SA  25336.00918396  .00003235  00000+0  15741-2 0  9995", "line2": "2 34433  74.0107 173.9420 0151692 314.3942  44.4856 14.12772315857985"}}, "geometry": {"type": "Point", "coordinates": [-19.076713984902508, 35.017774018091764]}}, {"type": "Feature", "properties": {"norad_id": 34434, "name": "COSMOS 2251 DEB", "group": "cosmos-2251-debris", "lat": 42.038098830685364, "lon": -167.92753761076688, "alt_km": 750.8357796635783, "timestamp": "2025-12-02T19:35:50.948847+00:00", "meta": {"OBJECT_NAME": "COSMOS 2251 DEB", "OBJECT_ID": "1993-036SB", "EPOCH": "2025-12-02T12:42:23.764608", "MEAN_MOTION": 13.89681576, "ECCENTRICITY": 0.0276549, "INCLINATION": 74.0641, "RA_OF_ASC_NODE": 27.4882, "ARG_OF_PERICENTER": 167.1096, "MEAN_ANOMALY": 334.3995, "EPHEMERIS_TYPE": 0, "CLASSIFICATION_TYPE": "U", "NORAD_CAT_ID": 34434, "ELEMENT_SET_NO": 999, "REV_AT_EPOCH": 83824, "BSTAR": 0.003546, "MEAN_MOTION_DOT": 5.895e-05, "MEAN_MOTION_DDOT": 0}, "tle": {"line1": "1 34434U 93036SB  25336.52944172  .00005895  00000+0  35460-2 0  9998", "line2": "2 34434  74.0641  27.4882 0276549 167.1096 334.3995 13.89681576838241"}}, "geometry": {"type": "Point", "coordinates": [-167.92753761076688, 42.038098830685364]}}, {"type": "Feature", "properties": {"norad_id": 34446, "name": "COSMOS 2251 DEB", "group": "cosmos-2251-debris", "lat": -2.621246758345713, "lon": 75.1393286850954, "alt_km": 759.3432353918879, "timestamp": "2025-12-02T19:35:50.948857+00:00", "meta": {"OBJECT_NAME": "COSMOS 2251 DEB", "OBJECT_ID": "1993-036SP", "EPOCH": "2025-12-02T08:00:49.767840", "MEAN_MOTION": 14.49331675, "ECCENTRICITY": 0.0051613, "INCLINATION": 74.0421, "RA_OF_ASC_NODE": 76.7946, "ARG_OF_PERICENTER": 217.1215, "MEAN_ANOMALY": 142.6372, "EPHEMERIS_TYPE": 0, "CLASSIFICATION_TYPE": "U", "NORAD_CAT_ID": 34446, "ELEMENT_SET_NO": 999, "REV_AT_EPOCH": 88543, "BSTAR": 0.00023587, "MEAN_MOTION_DOT": 8.87e-06, "MEAN_MOTION_DDOT": 0}, "tle": {"line1": "1 34446U 93036SP  25336.33390935  .00000887  00000+0  23587-3 0  9996", "line2": "2 34446  74.0421  76.7946 0051613 217.1215 142.6372 14.49331675885431"}}, "geometry": {"type": "Point", "coordinates": [75.1393286850954, -2.621246758345713]}}, {"type": "Feature", "properties": {"norad_id": 34449, "name": "COSMOS 2251 DEB", "group": "cosmos-2251-debris", "lat": -22.773896517174887, "lon": 83.6511298134601, "alt_km": 607.8499418854735, "timestamp": "2025-12-02T19:35:50.948867+00:00", "meta": {"OBJECT_NAME": "COSMOS 2251 DEB", "OBJECT_ID": "1993-036SS", "EPOCH": "2025-12-02T08:44:40.006752", "MEAN_MOTION": 14.93785341, "ECCENTRICITY": 0.0025024, "INCLINATION": 74.0323, "RA_OF_ASC_NODE": 91.4653, "ARG_OF_PERICENTER": 141.1414, "MEAN_ANOMALY": 284.4895, "EPHEMERIS_TYPE": 0, "CLASSIFICATION_TYPE": "U", "NORAD_CAT_ID": 34449, "ELEMENT_SET_NO": 999, "REV_AT_EPOCH": 88538, "BSTAR": 0.0040761, "MEAN_MOTION_DOT": 0.00043727, "MEAN_MOTION_DDOT": 0}, "tle": {"line1": "1 34449U 93036SS  25336.36435193  .00043727  00000+0  40761-2 0  9990", "line2": "2 34449  74.0323  91.4653 0025024 141.1414 284.4895 14.93785341885389"}}, "geometry": {"type": "Point", "coordinates": [83.6511298134601, -22.773896517174887]}}, {"type": "Feature", "properties": {"norad_id": 34451, "name": "COSMOS 2251 DEB", "group": "cosmos-2251-debris", "lat": -69.68568194856212, "lon": 57.261825732125104, "alt_km": 606.0124292853416, "timestamp": "2025-12-02T19:35:50.948878+00:00", "meta": {"OBJECT_NAME": "COSMOS 2251 DEB", "OBJECT_ID": "1993-036SU", "EPOCH": "2025-12-02T10:18:18.338688", "MEAN_MOTION": 14.94509424, "ECCENTRICITY": 0.0025909, "INCLINATION": 74.0446, "RA_OF_ASC_NODE": 108.65, "ARG_OF_PERICENTER": 135.584, "MEAN_ANOMALY": 224.7428, "EPHEMERIS_TYPE": 0, "CLASSIFICATION_TYPE": "U", "NORAD_CAT_ID": 34451, "ELEMENT_SET_NO": 999, "REV_AT_EPOCH": 88481, "BSTAR": 0.0036538, "MEAN_MOTION_DOT": 0.00039917, "MEAN_MOTION_DDOT": 0}, "tle": {"line1": "1 34451U 93036SU  25336.42937892  .00039917  00000+0  36538-2 0  9996", "line2": "2 34451  74.0446 108.6500 0025909 135.5840 224.7428 14.94509424884815"}}, "geometry": {"type": "Point", "coordinates": [57.261825732125104, -69.68568194856212]}}, {"type": "Feature", "properties": {"norad_id": 34452, "name": "COSMOS 2251 DEB", "group": "cosmos-2251-debris", "lat": 31.381465458312235, "lon": 13.293291692809825, "alt_km": 562.864281408326, "timestamp": "2025-12-02T19:35:50.948888+00:00", "meta": {"OBJECT_NAME": "COSMOS 2251 DEB", "OBJECT_ID": "1993-036SV", "EPOCH": "2025-12-02T02:08:14.098848", "MEAN_MOTION": 15.11237153, "ECCENTRICITY": 0.00674196, "INCLINATION": 74.0357, "RA_OF_ASC_NODE": 204.8534, "ARG_OF_PERICENTER": 283.4446, "MEAN_ANOMALY": 227.9055, "EPHEMERIS_TYPE": 0, "CLASSIFICATION_TYPE": "U", "NORAD_CAT_ID": 34452, "ELEMENT_SET_NO": 999, "REV_AT_EPOCH": 90501, "BSTAR": 0.00092792999, "MEAN_MOTION_DOT": 0.00016471, "MEAN_MOTION_DDOT": 0}, "tle": {"line1": "1 34452U 93036SV  25336.08905207  .00016471  00000+0  92793-3 0  9990", "line2": "2 34452  74.0357 204.8534 0067419 283.4446 227.9055 15.11237153905014"}}, "geometry": {"type": "Point", "coordinates": [13.293291692809825, 31.381465458312235]}}, {"type": "Feature", "properties": {"norad_id": 34453, "name": "COSMOS 2251 DEB", "group": "cosmos-2251-debris", "lat": 53.044332036708674, "lon": -80.74752824929261, "alt_km": 400.40833543619647, "timestamp": "2025-12-02T19:35:50.948898+00:00", "meta": {"OBJECT_NAME": "COSMOS 2251 DEB", "OBJECT_ID": "1993-036SW", "EPOCH": "2025-12-02T11:21:13.424256", "MEAN_MOTION": 15.55953745, "ECCENTRICITY": 0.0017801, "INCLINATION": 74.1166, "RA_OF_ASC_NODE": 122.2488, "ARG_OF_PERICENTER": 354.2593, "MEAN_ANOMALY": 5.8416, "EPHEMERIS_TYPE": 0, "CLASSIFICATION_TYPE": "U", "NORAD_CAT_ID": 34453, "ELEMENT_SET_NO": 999, "REV_AT_EPOCH": 88706, "BSTAR": 0.01092, "MEAN_MOTION_DOT": 0.00833226, "MEAN_MOTION_DDOT": 0}, "tle": {"line1": "1 34453U 93036SW  25336.47307204  .00833226  00000+0  10920-1 0  9992", "line2": "2 34453  74.1166 122.2488 0017801 354.2593   5.8416 15.55953745887063"}}, "geometry": {"type": "Point", "coordinates": [-80.74752824929261, 53.044332036708674]}}, {"type": "Feature", "properties": {"norad_id": 34454, "name": "COSMOS 2251 DEB", "group": "cosmos-2251-debris", "lat": -68.53105031530649, "lon": 162.52838804793038, "alt_km": 775.9430691946491, "timestamp": "2025-12-02T19:35:50.948908+00:00", "meta": {"OBJECT_NAME": "COSMOS 2251 DEB", "OBJECT_ID": "1993-036SX", "EPOCH": "2025-12-02T06:43:51.827808", "MEAN_MOTION": 14.38778684, "ECCENTRICITY": 0.0035144, "INCLINATION": 74.0585, "RA_OF_ASC_NODE": 296.8993, "ARG_OF_PERICENTER": 1.7244, "MEAN_ANOMALY": 358.4025, "EPHEMERIS_TYPE": 0, "CLASSIFICATION_TYPE": "U", "NORAD_CAT_ID": 34454, "ELEMENT_SET_NO": 999, "REV_AT_EPOCH": 87917, "BSTAR": 0.00037417, "MEAN_MOTION_DOT": 1.132e-05, "MEAN_MOTION_DDOT": 0}, "tle": {"line1": "1 34454U 93036SX  25336.28046097  .00001132  00000+0  37417-3 0  9997", "line2": "2 34454  74.0585 296.8993 0035144   1.7244 358.4025 14.38778684879177"}}, "geometry": {"type": "Point", "coordinates": [162.52838804793038, -68.53105031530649]}}, {"type": "Feature", "properties": {"norad_id": 34459, "name": "COSMOS 2251 DEB", "group": "cosmos-2251-debris", "lat": -0.7407605088086278, "lon": 91.411229458261, "alt_km": 1027.6906810360624, "timestamp": "2025-12-02T19:35:50.948919+00:00", "meta": {"OBJECT_NAME": "COSMOS 2251 DEB", "OBJECT_ID": "1993-036TC", "EPOCH": "2025-12-01T20:26:41.411616", "MEAN_MOTION": 14.00463848, "ECCENTRICITY": 0.0191841, "INCLINATION": 74.0791, "RA_OF_ASC_NODE": 272.8664, "ARG_OF_PERICENTER": 345.1217, "MEAN_ANOMALY": 14.4317, "EPHEMERIS_TYPE": 0, "CLASSIFICATION_TYPE": "U", "NORAD_CAT_ID": 34459, "ELEMENT_SET_NO": 999, "REV_AT_EPOCH": 85559, "BSTAR": 0.00064505561, "MEAN_MOTION_DOT": 1.098e-05, "MEAN_MOTION_DDOT": 0}, "tle": {"line1": "1 34459U 93036TC  25335.85186819  .00001098  00000+0  64506-3 0  9991", "line2": "2 34459  74.0791 272.8664 0191841 345.1217  14.4317 14.00463848855597"}}, "geometry": {"type": "Point", "coordinates": [91.411229458261, -0.7407605088086278]}}]}